{
  "type": "FeatureCollection",
  "features": [
    {
      "type": "Feature",
      "properties": {
        "norad_id": 34648,
        "name": "IRIDIUM 33 DEB",
        "group": "iridium-33-debris",
        "lat": -44.993803311401,
        "lon": 99.72760681100978,
        "alt_km": 745.9258500425376,
        "timestamp": "2025-12-27T04:40:45.890161+00:00",
        "meta_object_name": "IRIDIUM 33 DEB",
        "meta_object_id": "1997-051JZ",
        "meta_epoch": "2025-12-26T17:23:51.360000",
        "meta_mean_motion": 14.11887507,
        "meta_eccentricity": 0.01778864,
        "meta_inclination": 86.3901,
        "meta_ra_of_asc_node": 276.2989,
        "meta_arg_of_pericenter": 254.825,
        "meta_mean_anomaly": 103.3201,
        "meta_ephemeris_type": 0,
        "meta_classification_type": "U",
        "meta_norad_cat_id": 34648,
        "meta_element_set_no": 999,
        "meta_rev_at_epoch": 85158,
        "meta_bstar": 0.0061458154,
        "meta_mean_motion_dot": 0.00013057,
        "meta_mean_motion_ddot": 0,
        "tle_line1": "1 34648U 97051JZ  25360.72490000  .00013057  00000+0  61458-2 0  9996",
        "tle_line2": "2 34648  86.3901 276.2989 0177886 254.8250 103.3201 14.11887507851589"
      },
      "geometry": {
        "type": "Point",
        "coordinates": [
          99.72760681100978,
          -44.993803311401
        ]
      }
    },
    {
      "type": "Feature",
      "properties": {
        "norad_id": 34651,
        "name": "IRIDIUM 33 DEB",
        "group": "iridium-33-debris",
        "lat": -55.83071050508335,
        "lon": 128.93142724139446,
        "alt_km": 895.988943567273,
        "timestamp": "2025-12-27T04:40:45.890171+00:00",
        "meta_object_name": "IRIDIUM 33 DEB",
        "meta_object_id": "1997-051KC",
        "meta_epoch": "2025-12-25T15:53:57.959232",
        "meta_mean_motion": 14.26027654,
        "meta_eccentricity": 0.0142018,
        "meta_inclination": 86.2827,
        "meta_ra_of_asc_node": 135.0795,
        "meta_arg_of_pericenter": 163.1805,
        "meta_mean_anomaly": 197.4168,
        "meta_ephemeris_type": 0,
        "meta_classification_type": "U",
        "meta_norad_cat_id": 34651,
        "meta_element_set_no": 999,
        "meta_rev_at_epoch": 86080,
        "meta_bstar": 0.0036817,
        "meta_mean_motion_dot": 9.797e-05,
        "meta_mean_motion_ddot": 0,
        "tle_line1": "1 34651U 97051KC  25359.66247638  .00009797  00000+0  36817-2 0  9995",
        "tle_line2": "2 34651  86.2827 135.0795 0142018 163.1805 197.4168 14.26027654860809"
      },
      "geometry": {
        "type": "Point",
        "coordinates": [
          128.93142724139446,
          -55.83071050508335
        ]
      }
    },
    {
      "type": "Feature",
      "properties": {
        "norad_id": 34652,
        "name": "IRIDIUM 33 DEB",
        "group": "iridium-33-debris",
        "lat": 74.23740749998662,
        "lon": -13.299353527401992,
        "alt_km": 696.8580187778662,
        "timestamp": "2025-12-27T04:40:45.890181+00:00",
        "meta_object_name": "IRIDIUM 33 DEB",
        "meta_object_id": "1997-051KD",
        "meta_epoch": "2025-12-26T21:54:14.287968",
        "meta_mean_motion": 14.62189264,
        "meta_eccentricity": 0.00254808,
        "meta_inclination": 86.332,
        "meta_ra_of_asc_node": 333.6903,
        "meta_arg_of_pericenter": 246.0109,
        "meta_mean_anomaly": 143.6409,
        "meta_ephemeris_type": 0,
        "meta_classification_type": "U",
        "meta_norad_cat_id": 34652,
        "meta_element_set_no": 999,
        "meta_rev_at_epoch": 88691,
        "meta_bstar": 0.0011443147,
        "meta_mean_motion_dot": 5.808e-05,
        "meta_mean_motion_ddot": 0,
        "tle_line1": "1 34652U 97051KD  25360.91266537  .00005808  00000+0  11443-2 0  9992",
        "tle_line2": "2 34652  86.3320 333.6903 0025480 246.0109 143.6409 14.62189264886914"
      },
      "geometry": {
        "type": "Point",
        "coordinates": [
          -13.299353527401992,
          74.23740749998662
        ]
      }
    },
    {
      "type": "Feature",
      "properties": {
        "norad_id": 34690,
        "name": "IRIDIUM 33 DEB",
        "group": "iridium-33-debris",
        "lat": -66.10372635329672,
        "lon": 22.4868790366206,
        "alt_km": 711.7280630005407,
        "timestamp": "2025-12-27T04:40:45.890192+00:00",
        "meta_object_name": "IRIDIUM 33 DEB",
        "meta_object_id": "1997-051KM",
        "meta_epoch": "2025-12-26T19:53:36.427776",
        "meta_mean_motion": 14.55146043,
        "meta_eccentricity": 0.00092349,
        "meta_inclination": 86.3773,
        "meta_ra_of_asc_node": 30.867,
        "meta_arg_of_pericenter": 341.6712,
        "meta_mean_anomaly": 195.6004,
        "meta_ephemeris_type": 0,
        "meta_classification_type": "U",
        "meta_norad_cat_id": 34690,
        "meta_element_set_no": 999,
        "meta_rev_at_epoch": 88299,
        "meta_bstar": 0.00044241179,
        "meta_mean_motion_dot": 1.932e-05,
        "meta_mean_motion_ddot": 0,
        "tle_line1": "1 34690U 97051KM  25360.82889384  .00001932  00000+0  44241-3 0  9992",
        "tle_line2": "2 34690  86.3773  30.8670 0009234 341.6712 195.6004 14.55146043882998"
      },
      "geometry": {
        "type": "Point",
        "coordinates": [
          22.4868790366206,
          -66.10372635329672
        ]
      }
    },
    {
      "type": "Feature",
      "properties": {
        "norad_id": 34693,
        "name": "IRIDIUM 33 DEB",
        "group": "iridium-33-debris",
        "lat": -76.02690320084595,
        "lon": 131.6786430262346,
        "alt_km": 482.2028954281759,
        "timestamp": "2025-12-27T04:40:45.890207+00:00",
        "meta_object_name": "IRIDIUM 33 DEB",
        "meta_object_id": "1997-051KQ",
        "meta_epoch": "2025-12-26T19:48:57.228768",
        "meta_mean_motion": 15.31583943,
        "meta_eccentricity": 0.00088429,
        "meta_inclination": 86.3049,
        "meta_ra_of_asc_node": 296.8095,
        "meta_arg_of_pericenter": 29.7643,
        "meta_mean_anomaly": 351.8395,
        "meta_ephemeris_type": 0,
        "meta_classification_type": "U",
        "meta_norad_cat_id": 34693,
        "meta_element_set_no": 999,
        "meta_rev_at_epoch": 89130,
        "meta_bstar": 0.005056928,
        "meta_mean_motion_dot": 0.00157281,
        "meta_mean_motion_ddot": 0,
        "tle_line1": "1 34693U 97051KQ  25360.82566237  .00157281  00000+0  50569-2 0  9992",
        "tle_line2": "2 34693  86.3049 296.8095 0008842  29.7643 351.8395 15.31583943891306"
      },
      "geometry": {
        "type": "Point",
        "coordinates": [
          131.6786430262346,
          -76.02690320084595
        ]
      }
    },
    {
      "type": "Feature",
      "properties": {
        "norad_id": 34696,
        "name": "IRIDIUM 33 DEB",
        "group": "iridium-33-debris",
        "lat": -68.58934765804312,
        "lon": -149.40825979795628,
        "alt_km": 715.3016952467569,
        "timestamp": "2025-12-27T04:40:45.890218+00:00",
        "meta_object_name": "IRIDIUM 33 DEB",
        "meta_object_id": "1997-051KT",
        "meta_epoch": "2025-12-26T01:36:24.067008",
        "meta_mean_motion": 14.65708991,
        "meta_eccentricity": 0.00738933,
        "meta_inclination": 86.1852,
        "meta_ra_of_asc_node": 21.3194,
        "meta_arg_of_pericenter": 122.6811,
        "meta_mean_anomaly": 297.1917,
        "meta_ephemeris_type": 0,
        "meta_classification_type": "U",
        "meta_norad_cat_id": 34696,
        "meta_element_set_no": 999,
        "meta_rev_at_epoch": 86868,
        "meta_bstar": 0.0037727771,
        "meta_mean_motion_dot": 0.00021447,
        "meta_mean_motion_ddot": 0,
        "tle_line1": "1 34696U 97051KT  25360.06694522  .00021447  00000+0  37728-2 0  9996",
        "tle_line2": "2 34696  86.1852  21.3194 0073893 122.6811 297.1917 14.65708991868683"
      },
      "geometry": {
        "type": "Point",
        "coordinates": [
          -149.40825979795628,
          -68.58934765804312
        ]
      }
    },
    {
      "type": "Feature",
      "properties": {
        "norad_id": 34765,
        "name": "IRIDIUM 33 DEB",
        "group": "iridium-33-debris",
        "lat": -77.44880170183643,
        "lon": 9.838440066678038,
        "alt_km": 770.0706946587507,
        "timestamp": "2025-12-27T04:40:45.890228+00:00",
        "meta_object_name": "IRIDIUM 33 DEB",
        "meta_object_id": "1997-051LJ",
        "meta_epoch": "2025-12-26T19:51:29.882880",
        "meta_mean_motion": 14.40499784,
        "meta_eccentricity": 0.00169801,
        "meta_inclination": 86.3378,
        "meta_ra_of_asc_node": 26.7151,
        "meta_arg_of_pericenter": 164.5853,
        "meta_mean_anomaly": 12.4724,
        "meta_ephemeris_type": 0,
        "meta_classification_type": "U",
        "meta_norad_cat_id": 34765,
        "meta_element_set_no": 999,
        "meta_rev_at_epoch": 87816,
        "meta_bstar": 0.00040051004,
        "meta_mean_motion_dot": 1.295e-05,
        "meta_mean_motion_ddot": 0,
        "tle_line1": "1 34765U 97051LJ  25360.82742920  .00001295  00000+0  40051-3 0  9996",
        "tle_line2": "2 34765  86.3378  26.7151 0016980 164.5853  12.4724 14.40499784878160"
      },
      "geometry": {
        "type": "Point",
        "coordinates": [
          9.838440066678038,
          -77.44880170183643
        ]
      }
    }
  ]
}